{"type": "FeatureCollection", "features": [ {"type": "Feature", "properties": {"norad_id": 29750, "name": "FENGYUN 1C DEB", "group": "fengyun-1c-debris", "lat": -72.62963637233707, "lon": 42.13084129151298, "alt_km": 844.9853063167075, "timestamp": "2025-12-09T09:46:47.916408+00:00", "meta": {"OBJECT_NAME": "FENGYUN 1C DEB", "OBJECT_ID": "1999-025AQ", "EPOCH": "2025-12-08T15:58:46.375392", "MEAN_MOTION": 14.09639019, "ECCENTRICITY": 0.0035169, "INCLINATION": 98.7549, "RA_OF_ASC_NODE": 11.8964, "ARG_OF_PERICENTER": 313.2367, "MEAN_ANOMALY": 170.3012, "EPHEMERIS_TYPE": 0, "CLASSIFICATION_TYPE": "U", "NORAD_CAT_ID": 29750, "ELEMENT_SET_NO": 999, "REV_AT_EPOCH": 97016, "BSTAR": 0.00044548, "MEAN_MOTION_DOT": 7.42e-06, "MEAN_MOTION_DDOT": 0}, "tle": {"line1": "1 29750U 99025AQ  25342.66581453  .00000742  00000+0  44548-3 0  9992", "line2": "2 29750  98.7549  11.8964 0035169 313.2367 170.3012 14.09639019970164"}}, "geometry": {"type": "Point", "coordinates": [42.13084129151298, -72.62963637233707]}}, {"type": "Feature", "properties": {"norad_id": 29751, "name": "FENGYUN 1C DEB", "group": "fengyun-1c-debris", "lat": -73.17158216138739, "lon": 161.58067515794377, "alt_km": 838.2895107584282, "timestamp": "2025-12-09T09:46:47.916419+00:00", "meta": {"OBJECT_NAME": "FENGYUN 1C DEB", "OBJECT_ID": "1999-025AR", "EPOCH": "2025-12-08T19:55:20.750592", "MEAN_MOTION": 14.23625198, "ECCENTRICITY": 0.00897501, "INCLINATION": 98.5418, "RA_OF_ASC_NODE": 10.8153, "ARG_OF_PERICENTER": 150.5189, "MEAN_ANOMALY": 26.3982, "EPHEMERIS_TYPE": 0, "CLASSIFICATION_TYPE": "U", "NORAD_CAT_ID": 29751, "ELEMENT_SET_NO": 999, "REV_AT_EPOCH": 98017, "BSTAR": 0.00030186017, "MEAN_MOTION_DOT": 6.75e-06, "MEAN_MOTION_DDOT": 0}, "tle": {"line1": "1 29751U 99025AR  25342.83010128  .00000675  00000+0  30186-3 0  9996", "line2": "2 29751  98.5418  10.8153 0089750 150.5189  26.3982 14.23625198980173"}}, "geometry": {"type": "Point", "coordinates": [161.58067515794377, -73.17158216138739]}}, {"type": "Feature", "properties": {"norad_id": 29754, "name": "FENGYUN 1C DEB", "group": "fengyun-1c-debris", "lat": 78.0430478276771, "lon": 38.52634787063129, "alt_km": 846.0616039925608, "timestamp": "2025-12-09T09:46:47.916430+00:00", "meta": {"OBJECT_NAME": "FENGYUN 1C DEB", "OBJECT_ID": "1999-025AU", "EPOCH": "2025-12-08T18:52:44.800896", "MEAN_MOTION": 14.19126813, "ECCENTRICITY": 0.00357574, "INCLINATION": 98.8843, "RA_OF_ASC_NODE": 85.5165, "ARG_OF_PERICENTER": 250.704, "MEAN_ANOMALY": 261.2139, "EPHEMERIS_TYPE": 0, "CLASSIFICATION_TYPE": "U", "NORAD_CAT_ID": 29754, "ELEMENT_SET_NO": 999, "REV_AT_EPOCH": 97298, "BSTAR": 0.0017223869, "MEAN_MOTION_DOT": 3.582e-05, "MEAN_MOTION_DDOT": 0}, "tle": {"line1": "1 29754U 99025AU  25342.78662964  .00003582  00000+0  17224-2 0  9991", "line2": "2 29754  98.8843  85.5165 0035757 250.7040 261.2139 14.19126813972989"}}, "geometry": {"type": "Point", "coordinates": [38.52634787063129, 78.0430478276771]}}, {"type": "Feature", "properties": {"norad_id": 29758, "name": "FENGYUN 1C DEB", "group": "fengyun-1c-debris", "lat": 38.45158794458558, "lon": -73.88559906574181, "alt_km": 767.3736558320488, "timestamp": "2025-12-09T09:46:47.916441+00:00", "meta": {"OBJECT_NAME": "FENGYUN 1C DEB", "OBJECT_ID": "1999-025AY", "EPOCH": "2025-12-08T06:35:50.968608", "MEAN_MOTION": 14.40875386, "ECCENTRICITY": 0.00207018, "INCLINATION": 98.8561, "RA_OF_ASC_NODE": 97.8304, "ARG_OF_PERICENTER": 321.2544, "MEAN_ANOMALY": 67.9953, "EPHEMERIS_TYPE": 0, "CLASSIFICATION_TYPE": "U", "NORAD_CAT_ID": 29758, "ELEMENT_SET_NO": 999, "REV_AT_EPOCH": 97607, "BSTAR": 0.0032276107, "MEAN_MOTION_DOT": 0.00010342, "MEAN_MOTION_DDOT": 0}, "tle": {"line1": "1 29758U 99025AY  25342.27489547  .00010342  00000+0  32276-2 0  9999", "line2": "2 29758  98.8561  97.8304 0020701 321.2544  67.9953 14.40875386976076"}}, "geometry": {"type": "Point", "coordinates": [-73.88559906574181, 38.45158794458558]}}, {"type": "Feature", "properties": {"norad_id": 29760, "name": "FENGYUN 1C DEB", "group": "fengyun-1c-debris", "lat": -74.04740515200503, "lon": 133.01761907807733, "alt_km": 844.7253688692053, "timestamp": "2025-12-09T09:46:47.916451+00:00", "meta": {"OBJECT_NAME": "FENGYUN 1C DEB", "OBJECT_ID": "1999-025BA", "EPOCH": "2025-12-09T00:02:44.594592", "MEAN_MOTION": 14.08285272, "ECCENTRICITY": 0.01306219, "INCLINATION": 98.7621, "RA_OF_ASC_NODE": 345.2761, "ARG_OF_PERICENTER": 184.1049, "MEAN_ANOMALY": 175.906, "EPHEMERIS_TYPE": 0, "CLASSIFICATION_TYPE": "U", "NORAD_CAT_ID": 29760, "ELEMENT_SET_NO": 999, "REV_AT_EPOCH": 97040, "BSTAR": 0.00029973153, "MEAN_MOTION_DOT": 5.11e-06, "MEAN_MOTION_DDOT": 0}, "tle": {"line1": "1 29760U 99025BA  25343.00190503  .00000511  00000+0  29973-3 0  9993", "line2": "2 29760  98.7621 345.2761 0130621 184.1049 175.9060 14.08285272970404"}}, "geometry": {"type": "Point", "coordinates": [133.01761907807733, -74.04740515200503]}}, {"type": "Feature", "properties": {"norad_id": 29762, "name": "FENGYUN 1C DEB", "group": "fengyun-1c-debris", "lat": 51.29191291799695, "lon": -44.57391641910548, "alt_km": 751.5413143018832, "timestamp": "2025-12-09T09:46:47.916462+00:00", "meta": {"OBJECT_NAME": "FENGYUN 1C DEB", "OBJECT_ID": "1999-025BC", "EPOCH": "2025-12-08T22:01:34.481280", "MEAN_MOTION": 14.22568201, "ECCENTRICITY": 0.02042391, "INCLINATION": 98.5791, "RA_OF_ASC_NODE": 325.8068, "ARG_OF_PERICENTER": 346.7742, "MEAN_ANOMALY": 76.6126, "EPHEMERIS_TYPE": 0, "CLASSIFICATION_TYPE": "U", "NORAD_CAT_ID": 29762, "ELEMENT_SET_NO": 999, "REV_AT_EPOCH": 97894, "BSTAR": 0.0006186804, "MEAN_MOTION_DOT": 1.664e-05, "MEAN_MOTION_DDOT": 0}, "tle": {"line1": "1 29762U 99025BC  25342.91776020  .00001664  00000+0  61868-3 0  9997", "line2": "2 29762  98.5791 325.8068 0204239 346.7742  76.6126 14.22568201978948"}}, "geometry": {"type": "Point", "coordinates": [-44.57391641910548, 51.29191291799695]}}, {"type": "Feature", "properties": {"norad_id": 29763, "name": "FENGYUN 1C DEB", "group": "fengyun-1c-debris", "lat": 81.23043217724512, "lon": -125.44791453133894, "alt_km": 874.3504985294585, "timestamp": "2025-12-09T09:46:47.916473+00:00", "meta": {"OBJECT_NAME": "FENGYUN 1C DEB", "OBJECT_ID": "1999-025BD", "EPOCH": "2025-12-08T21:43:52.582944", "MEAN_MOTION": 14.07872204, "ECCENTRICITY": 0.01271956, "INCLINATION": 98.7606, "RA_OF_ASC_NODE": 322.4254, "ARG_OF_PERICENTER": 191.3457, "MEAN_ANOMALY": 236.8017, "EPHEMERIS_TYPE": 0, "CLASSIFICATION_TYPE": "U", "NORAD_CAT_ID": 29763, "ELEMENT_SET_NO": 999, "REV_AT_EPOCH": 96996, "BSTAR": 0.00027666805, "MEAN_MOTION_DOT": 4.63e-06, "MEAN_MOTION_DDOT": 0}, "tle": {"line1": "1 29763U 99025BD  25342.90546971  .00000463  00000+0  27667-3 0  9992", "line2": "2 29763  98.7606 322.4254 0127195 191.3457 236.8017 14.07872204969963"}}, "geometry": {"type": "Point", "coordinates": [-125.44791453133894, 81.23043217724512]}}, {"type": "Feature", "properties": {"norad_id": 29765, "name": "FENGYUN 1C DEB", "group": "fengyun-1c-debris", "lat": 41.38710192405183, "lon": -6.176121968587191, "alt_km": 860.8883153821671, "timestamp": "2025-12-09T09:46:47.916484+00:00", "meta": {"OBJECT_NAME": "FENGYUN 1C DEB", "OBJECT_ID": "1999-025BF", "EPOCH": "2025-12-08T23:35:46.267296", "MEAN_MOTION": 14.02151889, "ECCENTRICITY": 0.00597477, "INCLINATION": 98.8307, "RA_OF_ASC_NODE": 1.2865, "ARG_OF_PERICENTER": 102.98, "MEAN_ANOMALY": 318.9863, "EPHEMERIS_TYPE": 0, "CLASSIFICATION_TYPE": "U", "NORAD_CAT_ID": 29765, "ELEMENT_SET_NO": 999, "REV_AT_EPOCH": 96698, "BSTAR": 0.00012859727, "MEAN_MOTION_DOT": 1.58e-06, "MEAN_MOTION_DDOT": 0}, "tle": {"line1": "1 29765U 99025BF  25342.98317439  .00000158  00000+0  12860-3 0  9997", "line2": "2 29765  98.8307   1.2865 0059747 102.9800 318.9863 14.02151889966985"}}, "geometry": {"type": "Point", "coordinates": [-6.176121968587191, 41.38710192405183]}}, {"type": "Feature", "properties": {"norad_id": 29766, "name": "FENGYUN 1C DEB", "group": "fengyun-1c-debris", "lat": -70.28761949542034, "lon": 87.9670886370518, "alt_km": 835.6442610874601, "timestamp": "2025-12-09T09:46:47.916495+00:00", "meta": {"OBJECT_NAME": "FENGYUN 1C DEB", "OBJECT_ID": "1999-025BG", "EPOCH": "2025-12-08T20:38:47.122368", "MEAN_MOTION": 13.97025258, "ECCENTRICITY": 0.01463818, "INCLINATION": 98.6851, "RA_OF_ASC_NODE": 292.7022, "ARG_OF_PERICENTER": 299.0663, "MEAN_ANOMALY": 83.6453, "EPHEMERIS_TYPE": 0, "CLASSIFICATION_TYPE": "U", "NORAD_CAT_ID": 29766, "ELEMENT_SET_NO": 999, "REV_AT_EPOCH": 95750, "BSTAR": 0.0027383646, "MEAN_MOTION_DOT": 4.142e-05, "MEAN_MOTION_DDOT": 0}, "tle": {"line1": "1 29766U 99025BG  25342.86026762  .00004142  00000+0  27384-2 0  9994", "line2": "2 29766  98.6851 292.7022 0146381 299.0663  83.6453 13.97025258957508"}}, "geometry": {"type": "Point", "coordinates": [87.9670886370518, -70.28761949542034]}}, {"type": "Feature", "properties": {"norad_id": 29767, "name": "FENGYUN 1C DEB", "group": "fengyun-1c-debris", "lat": 67.4437792205206, "lon": -67.88599899223881, "alt_km": 633.9274237957561, "timestamp": "2025-12-09T09:46:47.916505+00:00", "meta": {"OBJECT_NAME": "FENGYUN 1C DEB", "OBJECT_ID": "1999-025BH", "EPOCH": "2025-12-08T21:44:21.185664", "MEAN_MOTION": 14.03282098, "ECCENTRICITY": 0.03332845, "INCLINATION": 98.1992, "RA_OF_ASC_NODE": 311.9716, "ARG_OF_PERICENTER": 72.133, "MEAN_ANOMALY": 343.8728, "EPHEMERIS_TYPE": 0, "CLASSIFICATION_TYPE": "U", "NORAD_CAT_ID": 29767, "ELEMENT_SET_NO": 999, "REV_AT_EPOCH": 95546, "BSTAR": 0.0021481841, "MEAN_MOTION_DOT": 5.454e-05, "MEAN_MOTION_DDOT": 0}, "tle": {"line1": "1 29767U 99025BH  25342.90580076  .00005454  00000+0  21482-2 0  9993", "line2": "2 29767  98.1992 311.9716 0333284  72.1330 343.8728 14.03282098955469"}}, "geometry": {"type": "Point", "coordinates": [-67.88599899223881, 67.4437792205206]}}]}